{
 "generated_at": "2026-07-04T07:46:40Z",
 "sources": [
  {
   "name": "CelesTrak",
   "url": "https://celestrak.org/NORAD/elements/",
   "license": "frei verfügbar; Attribution. Ursprünglich USSPACECOM/Space-Track."
  },
  {
   "name": "GCAT (J. McDowell, planet4589.org)",
   "url": "https://planet4589.org/space/gcat/",
   "license": "CC-BY 4.0"
  }
 ],
 "satellites": [
  {
   "norad": 41167,
   "name": "KENT RIDGE 1",
   "intl": "2015-077B",
   "group": "resource",
   "gcat": {
    "class": null,
    "category": null,
    "owner": null,
    "state": null
   },
   "omm": {
    "OBJECT_NAME": "KENT RIDGE 1",
    "OBJECT_ID": "2015-077B",
    "EPOCH": "2026-07-03T00:15:11.304864",
    "MEAN_MOTION": 15.23225865,
    "ECCENTRICITY": 0.00081592,
    "INCLINATION": 14.9784,
    "RA_OF_ASC_NODE": 148.2979,
    "ARG_OF_PERICENTER": 102.6846,
    "MEAN_ANOMALY": 257.4388,
    "EPHEMERIS_TYPE": 0,
    "CLASSIFICATION_TYPE": "U",
    "NORAD_CAT_ID": 41167,
    "ELEMENT_SET_NO": 999,
    "REV_AT_EPOCH": 58351,
    "BSTAR": 0.00015866357,
    "MEAN_MOTION_DOT": 0.00004639,
    "MEAN_MOTION_DDOT": 0
   }
  },
  {
   "norad": 40536,
   "name": "KOMPSAT-3A",
   "intl": "2015-014A",
   "group": "resource",
   "gcat": {
    "class": "C",
    "category": "IMG",
    "owner": "KARI",
    "state": "KR"
   },
   "omm": {
    "OBJECT_NAME": "KOMPSAT-3A",
    "OBJECT_ID": "2015-014A",
    "EPOCH": "2026-07-03T15:47:21.215616",
    "MEAN_MOTION": 15.54840056,
    "ECCENTRICITY": 0.00571523,
    "INCLINATION": 97.6889,
    "RA_OF_ASC_NODE": 177.2338,
    "ARG_OF_PERICENTER": 116.1099,
    "MEAN_ANOMALY": 244.6051,
    "EPHEMERIS_TYPE": 0,
    "CLASSIFICATION_TYPE": "U",
    "NORAD_CAT_ID": 40536,
    "ELEMENT_SET_NO": 999,
    "REV_AT_EPOCH": 62437,
    "BSTAR": 0.00043857352,
    "MEAN_MOTION_DOT": 0.00031395,
    "MEAN_MOTION_DDOT": 0
   }
  },
  {
   "norad": 39084,
   "name": "LANDSAT 8",
   "intl": "2013-008A",
   "group": "resource",
   "gcat": {
    "class": "C",
    "category": "IMG",
    "owner": "USGS",
    "state": "US"
   },
   "omm": {
    "OBJECT_NAME": "LANDSAT 8",
    "OBJECT_ID": "2013-008A",
    "EPOCH": "2026-07-02T19:39:09.223200",
    "MEAN_MOTION": 14.57105324,
    "ECCENTRICITY": 0.00013517,
    "INCLINATION": 98.2296,
    "RA_OF_ASC_NODE": 253.7681,
    "ARG_OF_PERICENTER": 93.5087,
    "MEAN_ANOMALY": 266.6266,
    "EPHEMERIS_TYPE": 0,
    "CLASSIFICATION_TYPE": "U",
    "NORAD_CAT_ID": 39084,
    "ELEMENT_SET_NO": 999,
    "REV_AT_EPOCH": 70017,
    "BSTAR": 0.00010048063,
    "MEAN_MOTION_DOT": 0.00000407,
    "MEAN_MOTION_DDOT": 0
   }
  },
  {
   "norad": 49260,
   "name": "LANDSAT 9",
   "intl": "2021-088A",
   "group": "resource",
   "gcat": {
    "class": "C",
    "category": "IMG",
    "owner": "USGS/GSFC",
    "state": "US"
   },
   "omm": {
    "OBJECT_NAME": "LANDSAT 9",
    "OBJECT_ID": "2021-088A",
    "EPOCH": "2026-07-02T15:32:03.732288",
    "MEAN_MOTION": 14.57108136,
    "ECCENTRICITY": 0.00011871,
    "INCLINATION": 98.2275,
    "RA_OF_ASC_NODE": 253.6373,
    "ARG_OF_PERICENTER": 87.7642,
    "MEAN_ANOMALY": 272.3692,
    "EPHEMERIS_TYPE": 0,
    "CLASSIFICATION_TYPE": "U",
    "NORAD_CAT_ID": 49260,
    "ELEMENT_SET_NO": 999,
    "REV_AT_EPOCH": 25325,
    "BSTAR": 0.00010221453,
    "MEAN_MOTION_DOT": 0.00000415,
    "MEAN_MOTION_DDOT": 0
   }
  },
  {
   "norad": 41603,
   "name": "LAPAN-A3",
   "intl": "2016-040E",
   "group": "resource",
   "gcat": {
    "class": "C",
    "category": "IMG",
    "owner": "LAPAN",
    "state": "ID"
   },
   "omm": {
    "OBJECT_NAME": "LAPAN-A3",
    "OBJECT_ID": "2016-040E",
    "EPOCH": "2026-07-03T15:19:28.500384",
    "MEAN_MOTION": 15.33216179,
    "ECCENTRICITY": 0.00088607,
    "INCLINATION": 97.1494,
    "RA_OF_ASC_NODE": 180.2449,
    "ARG_OF_PERICENTER": 325.7569,
    "MEAN_ANOMALY": 34.3101,
    "EPHEMERIS_TYPE": 0,
    "CLASSIFICATION_TYPE": "U",
    "NORAD_CAT_ID": 41603,
    "ELEMENT_SET_NO": 999,
    "REV_AT_EPOCH": 55733,
    "BSTAR": 0.00015440688,
    "MEAN_MOTION_DOT": 0.00004885,
    "MEAN_MOTION_DDOT": 0
   }
  },
  {
   "norad": 29709,
   "name": "LAPAN-TUBSAT",
   "intl": "2007-001A",
   "group": "resource",
   "gcat": {
    "class": null,
    "category": null,
    "owner": null,
    "state": null
   },
   "omm": {
    "OBJECT_NAME": "LAPAN-TUBSAT",
    "OBJECT_ID": "2007-001A",
    "EPOCH": "2026-07-03T14:49:04.651680",
    "MEAN_MOTION": 14.85966252,
    "ECCENTRICITY": 0.00131547,
    "INCLINATION": 98.134,
    "RA_OF_ASC_NODE": 184.2122,
    "ARG_OF_PERICENTER": 127.8827,
    "MEAN_ANOMALY": 232.358,
    "EPHEMERIS_TYPE": 0,
    "CLASSIFICATION_TYPE": "U",
    "NORAD_CAT_ID": 29709,
    "ELEMENT_SET_NO": 999,
    "REV_AT_EPOCH": 5359,
    "BSTAR": 0.000085398879,
    "MEAN_MOTION_DOT": 0.00000689,
    "MEAN_MOTION_DDOT": 0
   }
  },
  {
   "norad": 59625,
   "name": "LEGION 1",
   "intl": "2024-081A",
   "group": "resource",
   "gcat": {
    "class": "B",
    "category": "IMG",
    "owner": "MAXARI",
    "state": "US"
   },
   "omm": {
    "OBJECT_NAME": "LEGION 1",
    "OBJECT_ID": "2024-081A",
    "EPOCH": "2026-07-02T19:07:24.827232",
    "MEAN_MOTION": 15.16774418,
    "ECCENTRICITY": 0.00080774,
    "INCLINATION": 97.5014,
    "RA_OF_ASC_NODE": 261.4878,
    "ARG_OF_PERICENTER": 320.9958,
    "MEAN_ANOMALY": 39.0692,
    "EPHEMERIS_TYPE": 0,
    "CLASSIFICATION_TYPE": "U",
    "NORAD_CAT_ID": 59625,
    "ELEMENT_SET_NO": 999,
    "REV_AT_EPOCH": 11990,
    "BSTAR": 0.00022092805,
    "MEAN_MOTION_DOT": 0.00004273,
    "MEAN_MOTION_DDOT": 0
   }
  },
  {
   "norad": 59626,
   "name": "LEGION 2",
   "intl": "2024-081B",
   "group": "resource",
   "gcat": {
    "class": "B",
    "category": "IMG",
    "owner": "MAXARI",
    "state": "US"
   },
   "omm": {
    "OBJECT_NAME": "LEGION 2",
    "OBJECT_ID": "2024-081B",
    "EPOCH": "2026-07-02T19:50:54.582432",
    "MEAN_MOTION": 15.167529,
    "ECCENTRICITY": 0.00098593,
    "INCLINATION": 97.5014,
    "RA_OF_ASC_NODE": 261.6149,
    "ARG_OF_PERICENTER": 282.764,
    "MEAN_ANOMALY": 77.2491,
    "EPHEMERIS_TYPE": 0,
    "CLASSIFICATION_TYPE": "U",
    "NORAD_CAT_ID": 59626,
    "ELEMENT_SET_NO": 999,
    "REV_AT_EPOCH": 11991,
    "BSTAR": 0.00026073321,
    "MEAN_MOTION_DOT": 0.00005054,
    "MEAN_MOTION_DDOT": 0
   }
  },
  {
   "norad": 60452,
   "name": "LEGION 3",
   "intl": "2024-146A",
   "group": "resource",
   "gcat": {
    "class": "B",
    "category": "IMG",
    "owner": "MAXARI",
    "state": "US"
   },
   "omm": {
    "OBJECT_NAME": "LEGION 3",
    "OBJECT_ID": "2024-146A",
    "EPOCH": "2026-07-02T19:31:27.689088",
    "MEAN_MOTION": 15.15587212,
    "ECCENTRICITY": 0.00088315,
    "INCLINATION": 45.0023,
    "RA_OF_ASC_NODE": 306.7512,
    "ARG_OF_PERICENTER": 270.5308,
    "MEAN_ANOMALY": 89.4558,
    "EPHEMERIS_TYPE": 0,
    "CLASSIFICATION_TYPE": "U",
    "NORAD_CAT_ID": 60452,
    "ELEMENT_SET_NO": 999,
    "REV_AT_EPOCH": 10439,
    "BSTAR": 0.00029748093,
    "MEAN_MOTION_DOT": 0.00005488,
    "MEAN_MOTION_DDOT": 0
   }
  },
  {
   "norad": 60453,
   "name": "LEGION 4",
   "intl": "2024-146B",
   "group": "resource",
   "gcat": {
    "class": "B",
    "category": "IMG",
    "owner": "MAXARI",
    "state": "US"
   },
   "omm": {
    "OBJECT_NAME": "LEGION 4",
    "OBJECT_ID": "2024-146B",
    "EPOCH": "2026-07-02T19:35:04.427808",
    "MEAN_MOTION": 15.16159778,
    "ECCENTRICITY": 0.00118884,
    "INCLINATION": 45.0024,
    "RA_OF_ASC_NODE": 38.6394,
    "ARG_OF_PERICENTER": 35.349,
    "MEAN_ANOMALY": 324.8175,
    "EPHEMERIS_TYPE": 0,
    "CLASSIFICATION_TYPE": "U",
    "NORAD_CAT_ID": 60453,
    "ELEMENT_SET_NO": 999,
    "REV_AT_EPOCH": 10324,
    "BSTAR": 0.00028151464,
    "MEAN_MOTION_DOT": 0.0000527,
    "MEAN_MOTION_DDOT": 0
   }
  }
 ]
}
