LAPAN-TUBSAT            
1 29709U 07001A   26184.61741495  .00000689  00000+0  85399-4 0  9993
2 29709  98.1340 184.2122 0013154 127.8827 232.3580 14.85966252 53596
LANDSAT 8               
1 39084U 13008A   26183.81885675  .00000407  00000+0  10048-3 0  9990
2 39084  98.2296 253.7681 0001351  93.5087 266.6266 14.57105324700177
KOMPSAT-3A              
1 40536U 15014A   26184.65788444  .00031395  00000+0  43857-3 0  9996
2 40536  97.6889 177.2338 0057152 116.1099 244.6051 15.54840056624377
KENT RIDGE 1            
1 41167U 15077B   26184.01054751  .00004639  00000+0  15866-3 0  9993
2 41167  14.9784 148.2979 0008159 102.6846 257.4388 15.23225865583512
LAPAN-A3                
1 41603U 16040E   26184.63852431  .00004885  00000+0  15441-3 0  9990
2 41603  97.1494 180.2449 0008860 325.7569  34.3101 15.33216179557330
LANDSAT 9               
1 49260U 21088A   26183.64726542  .00000415  00000+0  10221-3 0  9994
2 49260  98.2275 253.6373 0001187  87.7642 272.3692 14.57108136253250
LEGION 1                
1 59625U 24081A   26183.79681513  .00004273  00000+0  22093-3 0  9996
2 59625  97.5014 261.4878 0008077 320.9958  39.0692 15.16774418119902
LEGION 2                
1 59626U 24081B   26183.82702063  .00005054  00000+0  26073-3 0  9995
2 59626  97.5014 261.6149 0009859 282.7640  77.2491 15.16752900119912
LEGION 3                
1 60452U 24146A   26183.81351492  .00005488  00000+0  29748-3 0  9994
2 60452  45.0023 306.7512 0008831 270.5308  89.4558 15.15587212104395
LEGION 4                
1 60453U 24146B   26183.81602347  .00005270  00000+0  28151-3 0  9999
2 60453  45.0024  38.6394 0011888  35.3490 324.8175 15.16159778103248
